[
    {
        "Altitude(m)": 604983.0530728359,
        "Argument of Periapsis(deg)": 0.0,
        "Eccentricity": 0.0,
        "Inclination(deg)": 60.0,
        "Latitude(deg)": -0.09273442069815854,
        "Longitude(deg)": -109.91608369409117,
        "Mean Anomaly(deg)": 180.0,
        "RAAN(deg)": 170.00000000000003,
        "Satellite Name": "Test1 759",
        "Satellite Number": 759,
        "Semi-Major Axis(m)": 6980739.136638005,
        "Time(s)": 0
    },
    {
        "Altitude(m)": 605055.3331394627,
        "Argument of Periapsis(deg)": 0.00010418945913296404,
        "Eccentricity": 0.0,
        "Inclination(deg)": 60.0,
        "Latitude(deg)": -0.6331445721526852,
        "Longitude(deg)": -109.64795933259036,
        "Mean Anomaly(deg)": 180.62010614546185,
        "RAAN(deg)": 169.99957995086027,
        "Satellite Name": "Test1 759",
        "Satellite Number": 759,
        "Semi-Major Axis(m)": 6980739.136638005,
        "Time(s)": 10
    }
]